COMMENT,ORIGINATOR,NORAD_CAT_ID,OBJECT_NAME,OBJECT_TYPE,CLASSIFICATION_TYPE,INTLDES,EPOCH,EPOCH_MICROSECONDS,MEAN_MOTION,ECCENTRICITY,INCLINATION,RA_OF_ASC_NODE,ARG_OF_PERICENTER,MEAN_ANOMALY,EPHEMERIS_TYPE,ELEMENT_SET_NO,REV_AT_EPOCH,BSTAR,MEAN_MOTION_DOT,MEAN_MOTION_DDOT,FILE,TLE_LINE0,TLE_LINE1,TLE_LINE2,OBJECT_ID,OBJECT_NUMBER,SEMIMAJOR_AXIS,PERIOD,APOGEE,PERIGEE,DECAYED
"GENERATED VIA SPACETRACK.ORG API","18 SPCS","48890","SPACEBEE-104","PAYLOAD","U","21059M","2021-07-16 12:56:18","840480","15.11975571","0.0009563","97.5153","326.0707","172.0922","188.046","0","999","313","-0.000017264","-0.0000036","0","3078566","0 SPACEBEE-104","1 48890U 21059M   21197.53910695 -.00000360  00000-0 -17264-4 0  9999","2 48890  97.5153 326.0707 0009563 172.0922 188.0460 15.11975571  3138","2021-059M","48890","6908.313","95.240","536.784","523.571","0"
"GENERATED VIA SPACETRACK.ORG API","18 SPCS","48890","SPACEBEE-104","PAYLOAD","U","21059M","2021-07-17 19:07:00","993792","15.1197415","0.0009645","97.5154","327.3081","167.6239","192.523","0","999","332","-0.00002311","-0.00000461","0","3078640","0 SPACEBEE-104","1 48890U 21059M   21198.79653928 -.00000461  00000-0 -23110-4 0  9990","2 48890  97.5154 327.3081 0009645 167.6239 192.5230 15.11974150  3328","2021-059M","48890","6908.317","95.240","536.845","523.519","0"
"GENERATED VIA SPACETRACK.ORG API","18 SPCS","48890","SPACEBEE-104","PAYLOAD","U","21059M","2021-07-17 19:07:00","993792","15.1197415","0.0009645","97.5154","327.3081","167.6239","192.523","0","999","332","-0.00002311","-0.00000461","0","3078808","0 SPACEBEE-104","1 48890U 21059M   21198.79653928 -.00000461  00000-0 -23110-4 0  9990","2 48890  97.5154 327.3081 0009645 167.6239 192.5230 15.11974150  3328","2021-059M","48890","6908.317","95.240","536.845","523.519","0"
"GENERATED VIA SPACETRACK.ORG API","18 SPCS","48890","SPACEBEE-104","PAYLOAD","U","21059M","2021-07-18 14:10:37","183296","15.11971733","0.0009691","97.5156","328.0891","164.8873","195.2648","0","999","344","-0.000054505","-0.00000999","0","3079483","0 SPACEBEE-104","1 48890U 21059M   21199.59070814 -.00000999  00000-0 -54505-4 0  9994","2 48890  97.5156 328.0891 0009691 164.8873 195.2648 15.11971733  3441","2021-059M","48890","6908.324","95.240","536.884","523.495","0"
"GENERATED VIA SPACETRACK.ORG API","18 SPCS","48890","SPACEBEE-104","PAYLOAD","U","21059M","2021-07-19 14:00:07","495776","15.11969916","0.0009788","97.5158","329.0657","161.6187","198.5399","0","999","359","-0.000049196","-0.00000908","0","3080056","0 SPACEBEE-104","1 48890U 21059M   21200.58342009 -.00000908  00000-0 -49196-4 0  9994","2 48890  97.5158 329.0657 0009788 161.6187 198.5399 15.11969916  3599","2021-059M","48890","6908.330","95.240","536.957","523.433","0"
"GENERATED VIA SPACETRACK.ORG API","18 SPCS","48890","SPACEBEE-104","PAYLOAD","U","21059M","2021-07-19 14:00:07","495776","15.11969916","0.0009788","97.5158","329.0657","161.6187","198.5399","0","999","359","-0.000049196","-0.00000908","0","3080144","0 SPACEBEE-104","1 48890U 21059M   21200.58342009 -.00000908  00000-0 -49196-4 0  9994","2 48890  97.5158 329.0657 0009788 161.6187 198.5399 15.11969916  3599","2021-059M","48890","6908.330","95.240","536.957","523.433","0"
"GENERATED VIA SPACETRACK.ORG API","18 SPCS","48890","SPACEBEE-104","PAYLOAD","U","21059M","2021-07-20 15:24:55","894176","15.11968208","0.0009906","97.5159","330.1074","158.1299","202.0356","0","999","375","-0.000048583","-0.00000898","0","3080460","0 SPACEBEE-104","1 48890U 21059M   21201.64231359 -.00000898  00000-0 -48583-4 0  9994","2 48890  97.5159 330.1074 0009906 158.1299 202.0356 15.11968208  3758","2021-059M","48890","6908.335","95.240","537.044","523.357","0"
"GENERATED VIA SPACETRACK.ORG API","18 SPCS","48890","SPACEBEE-104","PAYLOAD","U","21059M","2021-07-20 15:24:55","894176","15.11968208","0.0009906","97.5159","330.1074","158.1299","202.0356","0","999","375","-0.000048583","-0.00000898","0","3080542","0 SPACEBEE-104","1 48890U 21059M   21201.64231359 -.00000898  00000-0 -48583-4 0  9994","2 48890  97.5159 330.1074 0009906 158.1299 202.0356 15.11968208  3758","2021-059M","48890","6908.335","95.240","537.044","523.357","0"
"GENERATED VIA SPACETRACK.ORG API","18 SPCS","48890","SPACEBEE-104","PAYLOAD","U","21059M","2021-07-21 15:14:26","264544","15.11968669","0.0010053","97.516","331.0841","154.885","205.2871","0","999","390","-0.000015214","-0.00000325","0","3081362","0 SPACEBEE-104","1 48890U 21059M   21202.63502621 -.00000325  00000-0 -15214-4 0  9997","2 48890  97.5160 331.0841 0010053 154.8850 205.2871 15.11968669  3908","2021-059M","48890","6908.334","95.240","537.144","523.254","0"
"GENERATED VIA SPACETRACK.ORG API","18 SPCS","48890","SPACEBEE-104","PAYLOAD","U","21059M","2021-07-22 08:42:44","493408","15.11969499","0.0010132","97.5159","331.8003","152.6758","207.5007","0","999","401","-0.0000022704","-0.00000103","0","3081746","0 SPACEBEE-104","1 48890U 21059M   21203.36301497 -.00000103  00000-0 -22704-5 0  9993","2 48890  97.5159 331.8003 0010132 152.6758 207.5007 15.11969499  4016","2021-059M","48890","6908.331","95.240","537.196","523.197","0"
"GENERATED VIA SPACETRACK.ORG API","18 SPCS","48890","SPACEBEE-104","PAYLOAD","U","21059M","2021-07-22 08:42:44","493408","15.11969499","0.0010132","97.5159","331.8003","152.6758","207.5007","0","999","401","-0.0000022704","-0.00000103","0","3081830","0 SPACEBEE-104","1 48890U 21059M   21203.36301497 -.00000103  00000-0 -22704-5 0  9993","2 48890  97.5159 331.8003 0010132 152.6758 207.5007 15.11969499  4016","2021-059M","48890","6908.331","95.240","537.196","523.197","0"
"GENERATED VIA SPACETRACK.ORG API","18 SPCS","48890","SPACEBEE-104","PAYLOAD","U","21059M","2021-07-23 10:07:32","718144","15.11972247","0.0010188","97.5159","332.8423","148.964","211.2194","0","999","417","0.000026047","0.00000383","0","3082068","0 SPACEBEE-104","1 48890U 21059M   21204.42190646  .00000383  00000-0  26047-4 0  9994","2 48890  97.5159 332.8423 0010188 148.9640 211.2194 15.11972247  4173","2021-059M","48890","6908.323","95.240","537.226","523.150","0"
"GENERATED VIA SPACETRACK.ORG API","18 SPCS","48890","SPACEBEE-104","PAYLOAD","U","21059M","2021-07-24 14:42:57","53376","15.11972717","0.0010343","97.5162","334.0141","145.1301","215.0609","0","999","435","0.000025136","0.00000367","0","3082588","0 SPACEBEE-104","1 48890U 21059M   21205.61316034  .00000367  00000-0  25136-4 0  9997","2 48890  97.5162 334.0141 0010343 145.1301 215.0609 15.11972717  4359","2021-059M","48890","6908.321","95.240","537.332","523.041","0"
"GENERATED VIA SPACETRACK.ORG API","18 SPCS","48890","SPACEBEE-104","PAYLOAD","U","21059M","2021-07-25 14:32:27","254400","15.11972852","0.0010417","97.5164","334.9908","141.98","218.2167","0","999","450","0.000012476","0.0000015","0","3082986","0 SPACEBEE-104","1 48890U 21059M   21206.60587100  .00000150  00000-0  12476-4 0  9994","2 48890  97.5164 334.9908 0010417 141.9800 218.2167 15.11972852  4502","2021-059M","48890","6908.321","95.240","537.382","522.990","0"
"GENERATED VIA SPACETRACK.ORG API","18 SPCS","48890","SPACEBEE-104","PAYLOAD","U","21059M","2021-07-26 14:21:57","433824","15.11973257","0.0010519","97.5166","335.9675","138.8233","221.3792","0","999","465","0.000010521","0.00000116","0","3083474","0 SPACEBEE-104","1 48890U 21059M   21207.59858141  .00000116  00000-0  10521-4 0  9990","2 48890  97.5166 335.9675 0010519 138.8233 221.3792 15.11973257  4659","2021-059M","48890","6908.320","95.240","537.452","522.918","0"
"GENERATED VIA SPACETRACK.ORG API","18 SPCS","48890","SPACEBEE-104","PAYLOAD","U","21059M","2021-07-26 14:21:57","433824","15.11973257","0.0010519","97.5166","335.9675","138.8233","221.3792","0","999","465","0.000010521","0.00000116","0","3083550","0 SPACEBEE-104","1 48890U 21059M   21207.59858141  .00000116  00000-0  10521-4 0  9990","2 48890  97.5166 335.9675 0010519 138.8233 221.3792 15.11973257  4659","2021-059M","48890","6908.320","95.240","537.452","522.918","0"
"GENERATED VIA SPACETRACK.ORG API","18 SPCS","48890","SPACEBEE-104","PAYLOAD","U","21059M","2021-07-27 07:50:15","564192","15.11973698","0.0010587","97.5168","336.6837","136.4898","223.7169","0","999","476","0.000014454","0.00000184","0","3084099","0 SPACEBEE-104","1 48890U 21059M   21208.32656903  .00000184  00000-0  14454-4 0  9998","2 48890  97.5168 336.6837 0010587 136.4898 223.7169 15.11973698  4760","2021-059M","48890","6908.318","95.240","537.497","522.870","0"
"GENERATED VIA SPACETRACK.ORG API","18 SPCS","48890","SPACEBEE-104","PAYLOAD","U","21059M","2021-07-27 18:57:21","629952","15.11973956","0.0010633","97.5168","337.1395","135.0452","225.1641","0","999","483","0.000015402","0.000002","0","3084335","0 SPACEBEE-104","1 48890U 21059M   21208.78983368  .00000200  00000-0  15402-4 0  9999","2 48890  97.5168 337.1395 0010633 135.0452 225.1641 15.11973956  4834","2021-059M","48890","6908.318","95.240","537.528","522.837","0"
"GENERATED VIA SPACETRACK.ORG API","18 SPCS","48890","SPACEBEE-104","PAYLOAD","U","21059M","2021-07-28 02:53:51","671616","15.11974162","0.001065","97.5169","337.4652","134.0992","226.1116","0","999","488","0.000016824","0.00000225","0","3084418","0 SPACEBEE-104","1 48890U 21059M   21209.12073694  .00000225  00000-0  16824-4 0  9996","2 48890  97.5169 337.4652 0010650 134.0992 226.1116 15.11974162  4884","2021-059M","48890","6908.317","95.240","537.539","522.825","0"
"GENERATED VIA SPACETRACK.ORG API","18 SPCS","48890","SPACEBEE-104","PAYLOAD","U","21059M","2021-07-28 02:53:51","671616","15.11974162","0.001065","97.5169","337.4652","134.0992","226.1116","0","999","488","0.000016824","0.00000225","0","3084730","0 SPACEBEE-104","1 48890U 21059M   21209.12073694  .00000225  00000-0  16824-4 0  9996","2 48890  97.5169 337.4652 0010650 134.0992 226.1116 15.11974162  4884","2021-059M","48890","6908.317","95.240","537.539","522.825","0"
